[{"OBJECT_NAME":"STARLINK-30474","OBJECT_ID":"2023-146G","EPOCH":"2026-03-09T22:22:25.161888","MEAN_MOTION":15.08097712,"ECCENTRICITY":0.00016808,"INCLINATION":42.9999,"RA_OF_ASC_NODE":311.9544,"ARG_OF_PERICENTER":232.2311,"MEAN_ANOMALY":127.8382,"EPHEMERIS_TYPE":0,"CLASSIFICATION_TYPE":"U","NORAD_CAT_ID":57897,"ELEMENT_SET_NO":999,"REV_AT_EPOCH":13710,"BSTAR":0.033869438,"MEAN_MOTION_DOT":0.00562719,"MEAN_MOTION_DDOT":0},{"OBJECT_NAME":"OBJECT B","OBJECT_ID":"2024-105B","EPOCH":"2026-03-09T23:14:43.984032","MEAN_MOTION":15.17318063,"ECCENTRICITY":0.00110488,"INCLINATION":97.5903,"RA_OF_ASC_NODE":84.1254,"ARG_OF_PERICENTER":221.685,"MEAN_ANOMALY":138.3542,"EPHEMERIS_TYPE":0,"CLASSIFICATION_TYPE":"U","NORAD_CAT_ID":59918,"ELEMENT_SET_NO":999,"REV_AT_EPOCH":9799,"BSTAR":0.00069707648,"MEAN_MOTION_DOT":0.00013867,"MEAN_MOTION_DDOT":0}]
